NORAD_CAT_ID,OBJECT_NAME,OBJECT_TYPE,EPOCH,MEAN_MOTION,ECCENTRICITY,INCLINATION,RA_OF_ASC_NODE,ARG_OF_PERICENTER,MEAN_ANOMALY,BSTAR,MEAN_MOTION_DOT,MEAN_MOTION_DDOT,TLE_LINE0,TLE_LINE1,TLE_LINE2,SEMIMAJOR_AXIS,PERIOD,APOGEE,PERIGEE,DECAYED
53840.0,STARLINK-4766,PAYLOAD,2023-04-09 05:40:10,15.08854107,0.0001137,53.2182,37.1804,88.3363,271.7759,0.00068584,0.00010648,0.0,0 STARLINK-4766,1 53840U 22114Y   23099.23623778  .00010648  00000-0  68584-3 0  9994,2 53840  53.2182  37.1804 0001137  88.3363 271.7759 15.08854107 31583,6917.837,95.437,540.489,538.916,0.0
53840.0,STARLINK-4766,PAYLOAD,2023-04-10 05:30:58,15.08852175,0.0001144,53.2185,32.7202,76.8531,283.2589,0.00068168,0.00010581,0.0,0 STARLINK-4766,1 53840U 22114Y   23100.22984016  .00010581  00000-0  68168-3 0  9995,2 53840  53.2185  32.7202 0001144  76.8531 283.2589 15.08852175 31735,6917.843,95.437,540.5,538.917,0.0
53840.0,STARLINK-4766,PAYLOAD,2023-04-11 03:46:22,15.08801699,0.0001422,53.2182,28.5578,86.102,274.0135,-0.0012447,-0.00020022,0.0,0 STARLINK-4766,1 53840U 22114Y   23101.15720669 -.00020022  00000-0 -12447-2 0  9991,2 53840  53.2182  28.5578 0001422  86.1020 274.0135 15.08801699 32413,6917.997,95.44,540.846,538.879,0.0
53840.0,STARLINK-4766,PAYLOAD,2023-04-11 18:05:00,15.08608378,0.0001557,53.2165,25.8821,87.6236,272.4934,-0.0040572,-0.00063881,0.0,0 STARLINK-4766,1 53840U 22114Y   23101.75348281 -.00063881  00000-0 -40572-2 0  9993,2 53840  53.2165  25.8821 0001557  87.6236 272.4934 15.08608378 32507,6918.588,95.452,541.531,539.376,0.0
53840.0,STARLINK-4766,PAYLOAD,2023-04-12 05:13:03,15.08274955,0.0001143,53.2173,23.8009,92.2653,267.847,-0.0081939,-0.00126443,0.0,0 STARLINK-4766,1 53840U 22114Y   23102.21740694 -.00126443  00000-0 -81939-2 0  9995,2 53840  53.2173  23.8009 0001143  92.2653 267.8470 15.08274955 32039,6919.608,95.473,542.264,540.682,0.0
53840.0,STARLINK-4766,PAYLOAD,2023-04-13 06:39:52,15.08298537,0.0001229,53.2166,19.0461,98.6494,261.4637,-0.00042248,-6.905e-05,0.0,0 STARLINK-4766,1 53840U 22114Y   23103.27769388 -.00006905  00000-0 -42248-3 0  9994,2 53840  53.2166  19.0461 0001229  98.6494 261.4637 15.08298537 32732,6919.536,95.472,542.251,540.551,0.0
53840.0,STARLINK-4766,PAYLOAD,2023-04-14 06:30:54,15.08656297,0.0001634,53.2154,14.585,77.484,282.6334,0.0073547,0.00118135,0.0,0 STARLINK-4766,1 53840U 22114Y   23104.27146625  .00118135  00000-0  73547-2 0  9990,2 53840  53.2154  14.5850 0001634  77.4840 282.6334 15.08656297 32348,6918.442,95.449,541.437,539.176,0.0
53840.0,STARLINK-4766,PAYLOAD,2023-04-15 06:21:40,15.08857592,0.0002065,53.2162,10.1262,62.3593,297.7609,0.0014542,0.00022943,0.0,0 STARLINK-4766,1 53840U 22114Y   23105.26504747  .00022943  00000-0  14542-2 0  9994,2 53840  53.2162  10.1262 0002065  62.3593 297.7609 15.08857592 33033,6917.827,95.436,541.12,538.263,0.0
53840.0,STARLINK-4766,PAYLOAD,2023-04-15 20:40:08,15.08837344,0.0001756,53.2156,7.4479,97.5179,262.6013,0.00037734,5.722e-05,0.0,0 STARLINK-4766,1 53840U 22114Y   23105.86120942  .00005722  00000-0  37734-3 0  9996,2 53840  53.2156   7.4479 0001756  97.5179 262.6013 15.08837344 33124,6917.889,95.438,540.968,538.539,0.0
53840.0,STARLINK-4766,PAYLOAD,2023-04-15 22:15:31,15.08840087,0.0001854,53.216,7.1497,72.9483,287.1712,0.00055742,8.594e-05,0.0,0 STARLINK-4766,1 53840U 22114Y   23105.92745109  .00008594  00000-0  55742-3 0  9990,2 53840  53.2160   7.1497 0001854  72.9483 287.1712 15.08840087 32596,6917.88,95.438,541.028,538.463,0.0
53840.0,STARLINK-4766,PAYLOAD,2023-04-16 03:01:40,15.0886239,0.0001735,53.2158,6.2576,91.8241,268.295,0.0011723,0.0001843,0.0,0 STARLINK-4766,1 53840U 22114Y   23106.12616596  .00018430  00000-0  11723-2 0  9990,2 53840  53.2158   6.2576 0001735  91.8241 268.2950 15.08862390 33160,6917.812,95.436,540.877,538.477,0.0
53840.0,STARLINK-4766,PAYLOAD,2023-04-16 20:30:55,15.08858073,0.0001584,53.2177,2.9854,88.5235,271.5938,0.0015056,0.00023767,0.0,0 STARLINK-4766,1 53840U 22114Y   23106.85480971  .00023767  00000-0  15056-2 0  9998,2 53840  53.2177   2.9854 0001584  88.5235 271.5938 15.08858073 32739,6917.825,95.436,540.786,538.594,0.0
53840.0,STARLINK-4766,PAYLOAD,2023-04-17 02:52:27,15.08858543,0.0001578,53.2175,1.7971,90.6455,269.4718,0.00089493,0.00013991,0.0,0 STARLINK-4766,1 53840U 22114Y   23107.11976700  .00013991  00000-0  89493-3 0  9993,2 53840  53.2175   1.7971 0001578  90.6455 269.4718 15.08858543 33314,6917.824,95.436,540.78,538.597,0.0
53840.0,STARLINK-4766,PAYLOAD,2023-04-17 20:21:42,15.08839008,0.0002096,53.2169,358.5215,131.3621,228.7552,0.00072365,0.00011247,0.0,0 STARLINK-4766,1 53840U 22114Y   23107.84840961  .00011247  00000-0  72365-3 0  9994,2 53840  53.2169 358.5215 0002096 131.3621 228.7552 15.08839008 32885,6917.883,95.438,541.198,538.298,0.0
53840.0,STARLINK-4766,PAYLOAD,2023-04-17 21:57:05,15.08840294,0.0001984,53.2171,358.2242,128.9094,231.2076,0.00054931,8.465e-05,0.0,0 STARLINK-4766,1 53840U 22114Y   23107.91464943  .00008465  00000-0  54931-3 0  9991,2 53840  53.2171 358.2242 0001984 128.9094 231.2076 15.08840294 33437,6917.879,95.438,541.117,538.372,0.0
53840.0,STARLINK-4766,PAYLOAD,2023-04-18 02:43:15,15.08850659,0.0001319,53.2171,357.3374,103.6757,256.4382,0.0010946,0.00017181,0.0,0 STARLINK-4766,1 53840U 22114Y   23108.11337002  .00017181  00000-0  10946-2 0  9991,2 53840  53.2171 357.3374 0001319 103.6757 256.4382 15.08850659 33469,6917.848,95.437,540.625,538.8,0.0
53840.0,STARLINK-4766,PAYLOAD,2023-04-19 02:34:02,15.08852873,0.0001228,53.2165,352.8766,91.7729,268.3404,0.0011634,0.00018282,0.0,0 STARLINK-4766,1 53840U 22114Y   23109.10697151  .00018282  00000-0  11634-2 0  9993,2 53840  53.2165 352.8766 0001228  91.7729 268.3404 15.08852873 33076,6917.841,95.437,540.556,538.857,0.0
53840.0,STARLINK-4766,PAYLOAD,2023-04-20 00:49:26,15.08851571,0.0002043,53.2164,348.7137,80.1452,279.9771,0.00064836,0.00010049,0.0,0 STARLINK-4766,1 53840U 22114Y   23110.03433075  .00010049  00000-0  64836-3 0  9996,2 53840  53.2164 348.7137 0002043  80.1452 279.9771 15.08851571 33756,6917.845,95.437,541.123,538.297,0.0
53840.0,STARLINK-4766,PAYLOAD,2023-04-21 02:15:36,15.08833731,9.3e-05,53.2154,343.9556,98.0457,262.0641,0.00018357,2.634e-05,0.0,0 STARLINK-4766,1 53840U 22114Y   23111.09417431  .00002634  00000-0  18357-3 0  9999,2 53840  53.2154 343.9556 0000930  98.0457 262.0641 15.08833731 33378,6917.9,95.438,540.408,539.121,0.0
53840.0,STARLINK-4766,PAYLOAD,2023-04-22 00:31:00,15.08845044,9.19e-05,53.2143,339.7913,116.9833,243.1253,0.00052191,8.029e-05,0.0,0 STARLINK-4766,1 53840U 22114Y   23112.02153544  .00008029  00000-0  52191-3 0  9993,2 53840  53.2143 339.7913 0000919 116.9833 243.1253 15.08845044 34056,6917.865,95.437,540.366,539.094,0.0
53840.0,STARLINK-4766,PAYLOAD,2023-04-22 14:49:29,15.08843806,0.0001038,53.2148,337.1149,91.7077,268.4034,0.00032019,4.812e-05,0.0,0 STARLINK-4766,1 53840U 22114Y   23112.61769811  .00004812  00000-0  32019-3 0  9991,2 53840  53.2148 337.1149 0001038  91.7077 268.4034 15.08843806 33608,6917.869,95.437,540.452,539.016,0.0
53840.0,STARLINK-4766,PAYLOAD,2023-04-22 21:11:01,15.08838821,0.0001205,53.2164,335.9254,87.278,272.835,0.00023074,3.386e-05,0.0,0 STARLINK-4766,1 53840U 22114Y   23112.88266133  .00003386  00000-0  23074-3 0  9995,2 53840  53.2164 335.9254 0001205  87.2780 272.8350 15.08838821 34181,6917.884,95.438,540.583,538.915,0.0
53840.0,STARLINK-4766,PAYLOAD,2023-04-23 14:40:16,15.08842698,0.0001066,53.2163,332.6541,75.3006,284.8104,0.00031469,4.724e-05,0.0,0 STARLINK-4766,1 53840U 22114Y   23113.61130430  .00004724  00000-0  31469-3 0  9991,2 53840  53.2163 332.6541 0001066  75.3006 284.8104 15.08842698 34296,6917.872,95.437,540.475,539.0,0.0
53840.0,STARLINK-4766,PAYLOAD,2023-04-23 21:01:49,15.08889569,0.0001143,53.2159,331.4662,80.1811,279.931,0.0030324,0.0004837,0.0,0 STARLINK-4766,1 53840U 22114Y   23113.87626269  .00048370  00000-0  30324-2 0  9992,2 53840  53.2159 331.4662 0001143  80.1811 279.9310 15.08889569 33792,6917.729,95.434,540.385,538.803,0.0
53840.0,STARLINK-4766,PAYLOAD,2023-04-24 14:31:01,15.08933638,0.0001055,53.2161,328.1952,94.973,265.1383,0.0034984,0.00055975,0.0,0 STARLINK-4766,1 53840U 22114Y   23114.60488264  .00055975  00000-0  34984-2 0  9990,2 53840  53.2161 328.1952 0001055  94.9730 265.1383 15.08933638 34442,6917.594,95.432,540.189,538.729,0.0
53840.0,STARLINK-4766,PAYLOAD,2023-04-25 14:21:50,15.08830079,0.0004876,53.2167,323.733,312.9947,47.0637,0.00054411,8.38e-05,0.0,0 STARLINK-4766,1 53840U 22114Y   23115.59849977  .00008380  00000-0  54411-3 0  9997,2 53840  53.2167 323.7330 0004876 312.9947  47.0637 15.08830079 34596,6917.911,95.438,543.149,536.403,0.0
53840.0,STARLINK-4766,PAYLOAD,2023-04-25 20:43:23,15.08767968,0.0001206,53.2174,322.5456,61.1558,298.9555,-0.0010237,-0.00016511,0.0,0 STARLINK-4766,1 53840U 22114Y   23115.86346845 -.00016511  00000-0 -10237-2 0  9997,2 53840  53.2174 322.5456 0001206  61.1558 298.9555 15.08767968 34092,6918.101,95.442,540.8,539.131,0.0
53840.0,STARLINK-4766,PAYLOAD,2023-04-26 14:12:38,15.08840293,0.0001161,53.2202,319.2774,67.5823,292.5292,0.00075419,0.00011735,0.0,0 STARLINK-4766,1 53840U 22114Y   23116.59211685  .00011735  00000-0  75419-3 0  9996,2 53840  53.2202 319.2774 0001161  67.5823 292.5292 15.08840293 34748,6917.879,95.438,540.548,538.941,0.0
53840.0,STARLINK-4766,PAYLOAD,2023-04-26 20:34:11,15.08842032,0.0001165,53.2188,318.0869,63.0788,297.0323,0.00071441,0.00011101,0.0,0 STARLINK-4766,1 53840U 22114Y   23116.85707746  .00011101  00000-0  71441-3 0  9991,2 53840  53.2188 318.0869 0001165  63.0788 297.0323 15.08842032 34780,6917.874,95.437,540.545,538.933,0.0
53840.0,STARLINK-4766,PAYLOAD,2023-04-27 14:03:25,15.08850016,0.0001176,53.2181,314.8155,50.8988,309.2109,0.00089752,0.00014029,0.0,0 STARLINK-4766,1 53840U 22114Y   23117.58571467  .00014029  00000-0  89752-3 0  9997,2 53840  53.2181 314.8155 0001176  50.8988 309.2109 15.08850016 34894,6917.85,95.437,540.528,538.901,0.0
